[{"OBJECT_NAME":"STARLINK-3093","OBJECT_ID":"2021-082M","EPOCH":"2026-03-09T21:50:30.209568","MEAN_MOTION":14.98330401,"ECCENTRICITY":0.0002789,"INCLINATION":69.9983,"RA_OF_ASC_NODE":293.9108,"ARG_OF_PERICENTER":269.3238,"MEAN_ANOMALY":90.7602,"EPHEMERIS_TYPE":0,"CLASSIFICATION_TYPE":"U","NORAD_CAT_ID":49141,"ELEMENT_SET_NO":999,"REV_AT_EPOCH":24721,"BSTAR":1.7752566e-5,"MEAN_MOTION_DOT":1.19e-6,"MEAN_MOTION_DDOT":0},{"OBJECT_NAME":"SL-14 R\/B","OBJECT_ID":"1977-055B","EPOCH":"2026-03-09T12:09:50.153472","MEAN_MOTION":14.92006976,"ECCENTRICITY":0.00409775,"INCLINATION":75.8306,"RA_OF_ASC_NODE":90.7175,"ARG_OF_PERICENTER":356.0217,"MEAN_ANOMALY":4.0643,"EPHEMERIS_TYPE":0,"CLASSIFICATION_TYPE":"U","NORAD_CAT_ID":10096,"ELEMENT_SET_NO":999,"REV_AT_EPOCH":63654,"BSTAR":8.4112642e-5,"MEAN_MOTION_DOT":8.45e-6,"MEAN_MOTION_DDOT":0}]
